[
    {
        "Altitude(m)": 559724.6856339917,
        "Argument of Periapsis(deg)": 0.0,
        "Eccentricity": 0.0,
        "Inclination(deg)": 53.0,
        "Latitude(deg)": 52.38320031307251,
        "Longitude(deg)": -33.42070485617067,
        "Mean Anomaly(deg)": -278.1818,
        "RAAN(deg)": 350.0,
        "Satellite Name": "Starlink Shell 1 1545",
        "Satellite Number": 1545,
        "Semi-Major Axis(m)": 6931778.249405717,
        "Time(s)": 0
    },
    {
        "Altitude(m)": 559750.3116331627,
        "Argument of Periapsis(deg)": 0.00034857847951123687,
        "Eccentricity": 0.0,
        "Inclination(deg)": 53.0,
        "Latitude(deg)": 52.49539362553218,
        "Longitude(deg)": -32.4530846780431,
        "Mean Anomaly(deg)": -277.55496879644323,
        "RAAN(deg)": 349.99948122992254,
        "Satellite Name": "Starlink Shell 1 1545",
        "Satellite Number": 1545,
        "Semi-Major Axis(m)": 6931778.249405717,
        "Time(s)": 10
    },
    {
        "Altitude(m)": 559773.9582012233,
        "Argument of Periapsis(deg)": 0.0006971569590224737,
        "Eccentricity": 0.0,
        "Inclination(deg)": 53.0,
        "Latitude(deg)": 52.59894427695217,
        "Longitude(deg)": -31.480518652760882,
        "Mean Anomaly(deg)": -276.92813759288657,
        "RAAN(deg)": 349.9989624598451,
        "Satellite Name": "Starlink Shell 1 1545",
        "Satellite Number": 1545,
        "Semi-Major Axis(m)": 6931778.249405717,
        "Time(s)": 20
    },
    {
        "Altitude(m)": 559795.6111570597,
        "Argument of Periapsis(deg)": 0.0010457354385337105,
        "Eccentricity": 0.0,
        "Inclination(deg)": 53.0,
        "Latitude(deg)": 52.69377955196812,
        "Longitude(deg)": -30.50336624152102,
        "Mean Anomaly(deg)": -276.3013063893298,
        "RAAN(deg)": 349.9984436897676,
        "Satellite Name": "Starlink Shell 1 1545",
        "Satellite Number": 1545,
        "Semi-Major Axis(m)": 6931778.249405717,
        "Time(s)": 30
    },
    {
        "Altitude(m)": 559815.2575237205,
        "Argument of Periapsis(deg)": 0.0013943139180449475,
        "Eccentricity": 0.0,
        "Inclination(deg)": 53.0,
        "Latitude(deg)": 52.77983215087487,
        "Longitude(deg)": -29.52199904995461,
        "Mean Anomaly(deg)": -275.6744751857731,
        "RAAN(deg)": 349.9979249196901,
        "Satellite Name": "Starlink Shell 1 1545",
        "Satellite Number": 1545,
        "Semi-Major Axis(m)": 6931778.249405717,
        "Time(s)": 40
    },
    {
        "Altitude(m)": 559832.8855347598,
        "Argument of Periapsis(deg)": 0.0017428923975561844,
        "Eccentricity": 0.0,
        "Inclination(deg)": 53.0,
        "Latitude(deg)": 52.85704041630061,
        "Longitude(deg)": -28.536800990719353,
        "Mean Anomaly(deg)": -275.0476439822164,
        "RAAN(deg)": 349.9974061496127,
        "Satellite Name": "Starlink Shell 1 1545",
        "Satellite Number": 1545,
        "Semi-Major Axis(m)": 6931778.249405717,
        "Time(s)": 50
    },
    {
        "Altitude(m)": 559848.484639951,
        "Argument of Periapsis(deg)": 0.002091470877067421,
        "Eccentricity": 0.0,
        "Inclination(deg)": 53.0,
        "Latitude(deg)": 52.92534854436501,
        "Longitude(deg)": -27.548166854855978,
        "Mean Anomaly(deg)": -274.4208127786597,
        "RAAN(deg)": 349.99688737953517,
        "Satellite Name": "Starlink Shell 1 1545",
        "Satellite Number": 1545,
        "Semi-Major Axis(m)": 6931778.249405717,
        "Time(s)": 60
    },
    {
        "Altitude(m)": 559862.0455104335,
        "Argument of Periapsis(deg)": 0.0024400493565786582,
        "Eccentricity": 0.0,
        "Inclination(deg)": 53.0,
        "Latitude(deg)": 52.98470677867732,
        "Longitude(deg)": -26.556500809365993,
        "Mean Anomaly(deg)": -273.793981575103,
        "RAAN(deg)": 349.9963686094577,
        "Satellite Name": "Starlink Shell 1 1545",
        "Satellite Number": 1545,
        "Semi-Major Axis(m)": 6931778.249405717,
        "Time(s)": 70
    },
    {
        "Altitude(m)": 559873.5600432479,
        "Argument of Periapsis(deg)": 0.002788627836089895,
        "Eccentricity": 0.0,
        "Inclination(deg)": 53.0,
        "Latitude(deg)": 53.035071585630206,
        "Longitude(deg)": -25.5622163393811,
        "Mean Anomaly(deg)": -273.16715037154626,
        "RAAN(deg)": 349.99584983938024,
        "Satellite Name": "Starlink Shell 1 1545",
        "Satellite Number": 1545,
        "Semi-Major Axis(m)": 6931778.249405717,
        "Time(s)": 80
    },
    {
        "Altitude(m)": 559883.021365285,
        "Argument of Periapsis(deg)": 0.0031372063156011316,
        "Eccentricity": 0.0,
        "Inclination(deg)": 53.0,
        "Latitude(deg)": 53.07640580957382,
        "Longitude(deg)": -24.565734615532083,
        "Mean Anomaly(deg)": -272.5403191679896,
        "RAAN(deg)": 349.9953310693028,
        "Satellite Name": "Starlink Shell 1 1545",
        "Satellite Number": 1545,
        "Semi-Major Axis(m)": 6931778.249405717,
        "Time(s)": 90
    },
    {
        "Altitude(m)": 559890.4238366323,
        "Argument of Periapsis(deg)": 0.0034857847951123688,
        "Eccentricity": 0.0,
        "Inclination(deg)": 53.0,
        "Latitude(deg)": 53.10867880658959,
        "Longitude(deg)": -23.567482806546074,
        "Mean Anomaly(deg)": -271.9134879644328,
        "RAAN(deg)": 349.99481229922526,
        "Satellite Name": "Starlink Shell 1 1545",
        "Satellite Number": 1545,
        "Semi-Major Axis(m)": 6931778.249405717,
        "Time(s)": 100
    },
    {
        "Altitude(m)": 559895.7630533038,
        "Argument of Periapsis(deg)": 0.003834363274623606,
        "Eccentricity": 0.0,
        "Inclination(deg)": 53.0,
        "Latitude(deg)": 53.13186655574389,
        "Longitude(deg)": -22.567893857810393,
        "Mean Anomaly(deg)": -271.28665676087616,
        "RAAN(deg)": 349.9942935291478,
        "Satellite Name": "Starlink Shell 1 1545",
        "Satellite Number": 1545,
        "Semi-Major Axis(m)": 6931778.249405717,
        "Time(s)": 110
    },
    {
        "Altitude(m)": 559899.0358493994,
        "Argument of Periapsis(deg)": 0.004182941754134842,
        "Eccentricity": 0.0,
        "Inclination(deg)": 53.0,
        "Latitude(deg)": 53.145951746885515,
        "Longitude(deg)": -21.56740471866173,
        "Mean Anomaly(deg)": -270.65982555731944,
        "RAAN(deg)": 349.99377475907033,
        "Satellite Name": "Starlink Shell 1 1545",
        "Satellite Number": 1545,
        "Semi-Major Axis(m)": 6931778.249405717,
        "Time(s)": 120
    },
    {
        "Altitude(m)": 559900.2402986283,
        "Argument of Periapsis(deg)": 0.004531520233646079,
        "Eccentricity": 0.0,
        "Inclination(deg)": 53.0,
        "Latitude(deg)": 53.15092384423565,
        "Longitude(deg)": -20.566454540283843,
        "Mean Anomaly(deg)": -270.0329943537627,
        "RAAN(deg)": 349.9932559889928,
        "Satellite Name": "Starlink Shell 1 1545",
        "Satellite Number": 1545,
        "Semi-Major Axis(m)": 6931778.249405717,
        "Time(s)": 130
    },
    {
        "Altitude(m)": 559899.3757152514,
        "Argument of Periapsis(deg)": 0.0048800987131573164,
        "Eccentricity": 0.0,
        "Inclination(deg)": 53.0,
        "Latitude(deg)": 53.14677912522135,
        "Longitude(deg)": -19.565484366504233,
        "Mean Anomaly(deg)": -269.40616315020594,
        "RAAN(deg)": 349.9927372189154,
        "Satellite Name": "Starlink Shell 1 1545",
        "Satellite Number": 1545,
        "Semi-Major Axis(m)": 6931778.249405717,
        "Time(s)": 140
    },
    {
        "Altitude(m)": 559896.4426544062,
        "Argument of Periapsis(deg)": 0.005228677192668553,
        "Eccentricity": 0.0,
        "Inclination(deg)": 53.0,
        "Latitude(deg)": 53.13352069422199,
        "Longitude(deg)": -18.564935301441785,
        "Mean Anomaly(deg)": -268.7793319466492,
        "RAAN(deg)": 349.99221844883795,
        "Satellite Name": "Starlink Shell 1 1545",
        "Satellite Number": 1545,
        "Semi-Major Axis(m)": 6931778.249405717,
        "Time(s)": 150
    },
    {
        "Altitude(m)": 559891.4429118378,
        "Argument of Periapsis(deg)": 0.00557725567217979,
        "Eccentricity": 0.0,
        "Inclination(deg)": 53.0,
        "Latitude(deg)": 53.11115847110742,
        "Longitude(deg)": -17.565246676702113,
        "Mean Anomaly(deg)": -268.15250074309256,
        "RAAN(deg)": 349.9916996787604,
        "Satellite Name": "Starlink Shell 1 1545",
        "Satellite Number": 1545,
        "Semi-Major Axis(m)": 6931778.249405717,
        "Time(s)": 160
    },
    {
        "Altitude(m)": 559884.3795230107,
        "Argument of Periapsis(deg)": 0.0059258341516910265,
        "Eccentricity": 0.0,
        "Inclination(deg)": 53.0,
        "Latitude(deg)": 53.079709154664386,
        "Longitude(deg)": -16.56685574084262,
        "Mean Anomaly(deg)": -267.52566953953584,
        "RAAN(deg)": 349.991180908683,
        "Satellite Name": "Starlink Shell 1 1545",
        "Satellite Number": 1545,
        "Semi-Major Axis(m)": 6931778.249405717,
        "Time(s)": 170
    },
    {
        "Altitude(m)": 559875.2567616508,
        "Argument of Periapsis(deg)": 0.006274412631202263,
        "Eccentricity": 0.0,
        "Inclination(deg)": 53.0,
        "Latitude(deg)": 53.039196161232304,
        "Longitude(deg)": -15.570195855066812,
        "Mean Anomaly(deg)": -266.8988383359791,
        "RAAN(deg)": 349.9906621386055,
        "Satellite Name": "Starlink Shell 1 1545",
        "Satellite Number": 1545,
        "Semi-Major Axis(m)": 6931778.249405717,
        "Time(s)": 180
    }
]